[
  {
    "COMMENT": "GENERATED VIA SPACETRACK.ORG API",
    "ORIGINATOR": "18 SPCS",
    "NORAD_CAT_ID": "48621",
    "OBJECT_NAME": "HAIYANG 2D",
    "OBJECT_TYPE": "PAYLOAD",
    "CLASSIFICATION_TYPE": "U",
    "INTLDES": "21043A",
    "EPOCH": "2023-04-04 11:46:14",
    "EPOCH_MICROSECONDS": "253600",
    "MEAN_MOTION": "13.83371553",
    "ECCENTRICITY": "0.0009621",
    "INCLINATION": "66.001",
    "RA_OF_ASC_NODE": "336.8471",
    "ARG_OF_PERICENTER": "255.533",
    "MEAN_ANOMALY": "104.4679",
    "EPHEMERIS_TYPE": "0",
    "ELEMENT_SET_NO": "999",
    "REV_AT_EPOCH": "9479",
    "BSTAR": "0.000090988",
    "MEAN_MOTION_DOT": "0.00000019",
    "MEAN_MOTION_DDOT": "0",
    "FILE": "3879909",
    "TLE_LINE0": "0 HAIYANG 2D",
    "TLE_LINE1": "1 48621U 21043A   23094.49044275  .00000019  00000-0  90988-4 0  9992",
    "TLE_LINE2": "2 48621  66.0010 336.8471 0009621 255.5330 104.4679 13.83371553 94798",
    "OBJECT_ID": "2021-043A",
    "OBJECT_NUMBER": "48621",
    "SEMIMAJOR_AXIS": "7330.090",
    "PERIOD": "104.094",
    "APOGEE": "959.007",
    "PERIGEE": "944.902",
    "DECAYED": "0"
  },
  {
    "COMMENT": "GENERATED VIA SPACETRACK.ORG API",
    "ORIGINATOR": "18 SPCS",
    "NORAD_CAT_ID": "48621",
    "OBJECT_NAME": "HAIYANG 2D",
    "OBJECT_TYPE": "PAYLOAD",
    "CLASSIFICATION_TYPE": "U",
    "INTLDES": "21043A",
    "EPOCH": "2023-04-04 22:10:51",
    "EPOCH_MICROSECONDS": "911616",
    "MEAN_MOTION": "13.83371751",
    "ECCENTRICITY": "0.000963",
    "INCLINATION": "66.001",
    "RA_OF_ASC_NODE": "335.7675",
    "ARG_OF_PERICENTER": "255.5614",
    "MEAN_ANOMALY": "104.4384",
    "EPHEMERIS_TYPE": "0",
    "ELEMENT_SET_NO": "999",
    "REV_AT_EPOCH": "9485",
    "BSTAR": "0.00010275",
    "MEAN_MOTION_DOT": "0.00000032",
    "MEAN_MOTION_DDOT": "0",
    "FILE": "3880159",
    "TLE_LINE0": "0 HAIYANG 2D",
    "TLE_LINE1": "1 48621U 21043A   23094.92421194  .00000032  00000-0  10275-3 0  9994",
    "TLE_LINE2": "2 48621  66.0010 335.7675 0009630 255.5614 104.4384 13.83371751 94857",
    "OBJECT_ID": "2021-043A",
    "OBJECT_NUMBER": "48621",
    "SEMIMAJOR_AXIS": "7330.089",
    "PERIOD": "104.093",
    "APOGEE": "959.013",
    "PERIGEE": "944.895",
    "DECAYED": "0"
  },
  {
    "COMMENT": "GENERATED VIA SPACETRACK.ORG API",
    "ORIGINATOR": "18 SPCS",
    "NORAD_CAT_ID": "48621",
    "OBJECT_NAME": "HAIYANG 2D",
    "OBJECT_TYPE": "PAYLOAD",
    "CLASSIFICATION_TYPE": "U",
    "INTLDES": "21043A",
    "EPOCH": "2023-04-04 22:10:51",
    "EPOCH_MICROSECONDS": "911616",
    "MEAN_MOTION": "13.83371751",
    "ECCENTRICITY": "0.000963",
    "INCLINATION": "66.001",
    "RA_OF_ASC_NODE": "335.7675",
    "ARG_OF_PERICENTER": "255.5614",
    "MEAN_ANOMALY": "104.4384",
    "EPHEMERIS_TYPE": "0",
    "ELEMENT_SET_NO": "999",
    "REV_AT_EPOCH": "9485",
    "BSTAR": "0.00010275",
    "MEAN_MOTION_DOT": "0.00000032",
    "MEAN_MOTION_DDOT": "0",
    "FILE": "3880211",
    "TLE_LINE0": "0 HAIYANG 2D",
    "TLE_LINE1": "1 48621U 21043A   23094.92421194  .00000032  00000-0  10275-3 0  9994",
    "TLE_LINE2": "2 48621  66.0010 335.7675 0009630 255.5614 104.4384 13.83371751 94857",
    "OBJECT_ID": "2021-043A",
    "OBJECT_NUMBER": "48621",
    "SEMIMAJOR_AXIS": "7330.089",
    "PERIOD": "104.093",
    "APOGEE": "959.013",
    "PERIGEE": "944.895",
    "DECAYED": "0"
  },
  {
    "COMMENT": "GENERATED VIA SPACETRACK.ORG API",
    "ORIGINATOR": "18 SPCS",
    "NORAD_CAT_ID": "48621",
    "OBJECT_NAME": "HAIYANG 2D",
    "OBJECT_TYPE": "PAYLOAD",
    "CLASSIFICATION_TYPE": "U",
    "INTLDES": "21043A",
    "EPOCH": "2023-04-05 05:07:17",
    "EPOCH_MICROSECONDS": "30784",
    "MEAN_MOTION": "13.83371868",
    "ECCENTRICITY": "0.000963",
    "INCLINATION": "66.0008",
    "RA_OF_ASC_NODE": "335.0473",
    "ARG_OF_PERICENTER": "255.6113",
    "MEAN_ANOMALY": "104.389",
    "EPHEMERIS_TYPE": "0",
    "ELEMENT_SET_NO": "999",
    "REV_AT_EPOCH": "9489",
    "BSTAR": "0.00010689",
    "MEAN_MOTION_DOT": "0.00000036",
    "MEAN_MOTION_DDOT": "0",
    "FILE": "3880523",
    "TLE_LINE0": "0 HAIYANG 2D",
    "TLE_LINE1": "1 48621U 21043A   23095.21339156  .00000036  00000-0  10689-3 0  9996",
    "TLE_LINE2": "2 48621  66.0008 335.0473 0009630 255.6113 104.3890 13.83371868 94892",
    "OBJECT_ID": "2021-043A",
    "OBJECT_NUMBER": "48621",
    "SEMIMAJOR_AXIS": "7330.088",
    "PERIOD": "104.093",
    "APOGEE": "959.012",
    "PERIGEE": "944.895",
    "DECAYED": "0"
  },
  {
    "COMMENT": "GENERATED VIA SPACETRACK.ORG API",
    "ORIGINATOR": "18 SPCS",
    "NORAD_CAT_ID": "48621",
    "OBJECT_NAME": "HAIYANG 2D",
    "OBJECT_TYPE": "PAYLOAD",
    "CLASSIFICATION_TYPE": "U",
    "INTLDES": "21043A",
    "EPOCH": "2023-04-05 13:47:48",
    "EPOCH_MICROSECONDS": "420672",
    "MEAN_MOTION": "13.83371952",
    "ECCENTRICITY": "0.000963",
    "INCLINATION": "66.0008",
    "RA_OF_ASC_NODE": "334.1477",
    "ARG_OF_PERICENTER": "255.462",
    "MEAN_ANOMALY": "104.5384",
    "EPHEMERIS_TYPE": "0",
    "ELEMENT_SET_NO": "999",
    "REV_AT_EPOCH": "9494",
    "BSTAR": "0.0001057",
    "MEAN_MOTION_DOT": "0.00000035",
    "MEAN_MOTION_DDOT": "0",
    "FILE": "3880853",
    "TLE_LINE0": "0 HAIYANG 2D",
    "TLE_LINE1": "1 48621U 21043A   23095.57486598  .00000035  00000-0  10570-3 0  9996",
    "TLE_LINE2": "2 48621  66.0008 334.1477 0009630 255.4620 104.5384 13.83371952 94947",
    "OBJECT_ID": "2021-043A",
    "OBJECT_NUMBER": "48621",
    "SEMIMAJOR_AXIS": "7330.088",
    "PERIOD": "104.093",
    "APOGEE": "959.012",
    "PERIGEE": "944.894",
    "DECAYED": "0"
  },
  {
    "COMMENT": "GENERATED VIA SPACETRACK.ORG API",
    "ORIGINATOR": "18 SPCS",
    "NORAD_CAT_ID": "48621",
    "OBJECT_NAME": "HAIYANG 2D",
    "OBJECT_TYPE": "PAYLOAD",
    "CLASSIFICATION_TYPE": "U",
    "INTLDES": "21043A",
    "EPOCH": "2023-04-05 13:47:48",
    "EPOCH_MICROSECONDS": "420672",
    "MEAN_MOTION": "13.83371952",
    "ECCENTRICITY": "0.000963",
    "INCLINATION": "66.0008",
    "RA_OF_ASC_NODE": "334.1477",
    "ARG_OF_PERICENTER": "255.462",
    "MEAN_ANOMALY": "104.5384",
    "EPHEMERIS_TYPE": "0",
    "ELEMENT_SET_NO": "999",
    "REV_AT_EPOCH": "9494",
    "BSTAR": "0.0001057",
    "MEAN_MOTION_DOT": "0.00000035",
    "MEAN_MOTION_DDOT": "0",
    "FILE": "3880871",
    "TLE_LINE0": "0 HAIYANG 2D",
    "TLE_LINE1": "1 48621U 21043A   23095.57486598  .00000035  00000-0  10570-3 0  9996",
    "TLE_LINE2": "2 48621  66.0008 334.1477 0009630 255.4620 104.5384 13.83371952 94947",
    "OBJECT_ID": "2021-043A",
    "OBJECT_NUMBER": "48621",
    "SEMIMAJOR_AXIS": "7330.088",
    "PERIOD": "104.093",
    "APOGEE": "959.012",
    "PERIGEE": "944.894",
    "DECAYED": "0"
  },
  {
    "COMMENT": "GENERATED VIA SPACETRACK.ORG API",
    "ORIGINATOR": "18 SPCS",
    "NORAD_CAT_ID": "48621",
    "OBJECT_NAME": "HAIYANG 2D",
    "OBJECT_TYPE": "PAYLOAD",
    "CLASSIFICATION_TYPE": "U",
    "INTLDES": "21043A",
    "EPOCH": "2023-04-05 22:28:19",
    "EPOCH_MICROSECONDS": "827840",
    "MEAN_MOTION": "13.83371993",
    "ECCENTRICITY": "0.0009615",
    "INCLINATION": "66.0008",
    "RA_OF_ASC_NODE": "333.2478",
    "ARG_OF_PERICENTER": "255.3169",
    "MEAN_ANOMALY": "104.6838",
    "EPHEMERIS_TYPE": "0",
    "ELEMENT_SET_NO": "999",
    "REV_AT_EPOCH": "9499",
    "BSTAR": "0.00010577",
    "MEAN_MOTION_DOT": "0.00000035",
    "MEAN_MOTION_DDOT": "0",
    "FILE": "3881116",
    "TLE_LINE0": "0 HAIYANG 2D",
    "TLE_LINE1": "1 48621U 21043A   23095.93634060  .00000035  00000-0  10577-3 0  9992",
    "TLE_LINE2": "2 48621  66.0008 333.2478 0009615 255.3169 104.6838 13.83371993 94993",
    "OBJECT_ID": "2021-043A",
    "OBJECT_NUMBER": "48621",
    "SEMIMAJOR_AXIS": "7330.088",
    "PERIOD": "104.093",
    "APOGEE": "959.001",
    "PERIGEE": "944.905",
    "DECAYED": "0"
  },
  {
    "COMMENT": "GENERATED VIA SPACETRACK.ORG API",
    "ORIGINATOR": "18 SPCS",
    "NORAD_CAT_ID": "48621",
    "OBJECT_NAME": "HAIYANG 2D",
    "OBJECT_TYPE": "PAYLOAD",
    "CLASSIFICATION_TYPE": "U",
    "INTLDES": "21043A",
    "EPOCH": "2023-04-05 22:28:19",
    "EPOCH_MICROSECONDS": "827840",
    "MEAN_MOTION": "13.83371993",
    "ECCENTRICITY": "0.0009615",
    "INCLINATION": "66.0008",
    "RA_OF_ASC_NODE": "333.2478",
    "ARG_OF_PERICENTER": "255.3169",
    "MEAN_ANOMALY": "104.6838",
    "EPHEMERIS_TYPE": "0",
    "ELEMENT_SET_NO": "999",
    "REV_AT_EPOCH": "9499",
    "BSTAR": "0.00010577",
    "MEAN_MOTION_DOT": "0.00000035",
    "MEAN_MOTION_DDOT": "0",
    "FILE": "3881153",
    "TLE_LINE0": "0 HAIYANG 2D",
    "TLE_LINE1": "1 48621U 21043A   23095.93634060  .00000035  00000-0  10577-3 0  9992",
    "TLE_LINE2": "2 48621  66.0008 333.2478 0009615 255.3169 104.6838 13.83371993 94993",
    "OBJECT_ID": "2021-043A",
    "OBJECT_NUMBER": "48621",
    "SEMIMAJOR_AXIS": "7330.088",
    "PERIOD": "104.093",
    "APOGEE": "959.001",
    "PERIGEE": "944.905",
    "DECAYED": "0"
  },
  {
    "COMMENT": "GENERATED VIA SPACETRACK.ORG API",
    "ORIGINATOR": "18 SPCS",
    "NORAD_CAT_ID": "48621",
    "OBJECT_NAME": "HAIYANG 2D",
    "OBJECT_TYPE": "PAYLOAD",
    "CLASSIFICATION_TYPE": "U",
    "INTLDES": "21043A",
    "EPOCH": "2023-04-06 07:08:51",
    "EPOCH_MICROSECONDS": "206496",
    "MEAN_MOTION": "13.83372078",
    "ECCENTRICITY": "0.0009611",
    "INCLINATION": "66.0005",
    "RA_OF_ASC_NODE": "332.3478",
    "ARG_OF_PERICENTER": "255.2634",
    "MEAN_ANOMALY": "104.7371",
    "EPHEMERIS_TYPE": "0",
    "ELEMENT_SET_NO": "999",
    "REV_AT_EPOCH": "9504",
    "BSTAR": "0.0001045",
    "MEAN_MOTION_DOT": "0.00000034",
    "MEAN_MOTION_DDOT": "0",
    "FILE": "3881472",
    "TLE_LINE0": "0 HAIYANG 2D",
    "TLE_LINE1": "1 48621U 21043A   23096.29781489  .00000034  00000-0  10450-3 0  9999",
    "TLE_LINE2": "2 48621  66.0005 332.3478 0009611 255.2634 104.7371 13.83372078 95047",
    "OBJECT_ID": "2021-043A",
    "OBJECT_NUMBER": "48621",
    "SEMIMAJOR_AXIS": "7330.088",
    "PERIOD": "104.093",
    "APOGEE": "958.998",
    "PERIGEE": "944.908",
    "DECAYED": "0"
  }
]